CCSDS_OMM_VERS = 2.0
CREATION_DATE  = 
ORIGINATOR     = 

OBJECT_NAME    = CORAL
OBJECT_ID      = 1998-067YA
CENTER_NAME    = EARTH
REF_FRAME      = TEME
TIME_SYSTEM    = UTC
MEAN_ELEMENT_THEORY = SGP/SGP4

EPOCH          = 2026-03-28T09:23:08.722752
MEAN_MOTION    = 15.57476996
ECCENTRICITY   = .0012673
INCLINATION    = 51.6305
RA_OF_ASC_NODE = 338.0415
ARG_OF_PERICENTER = 243.0284
MEAN_ANOMALY   = 116.9414

EPHEMERIS_TYPE = 0
CLASSIFICATION_TYPE = U
NORAD_CAT_ID   = 67684
ELEMENT_SET_NO = 999
REV_AT_EPOCH   = 770
BSTAR          = .12759E-2
MEAN_MOTION_DOT = .96574E-3
MEAN_MOTION_DDOT = 0

CCSDS_OMM_VERS = 2.0
CREATION_DATE  = 
ORIGINATOR     = 

OBJECT_NAME    = GXIBA-1
OBJECT_ID      = 1998-067YB
CENTER_NAME    = EARTH
REF_FRAME      = TEME
TIME_SYSTEM    = UTC
MEAN_ELEMENT_THEORY = SGP/SGP4

EPOCH          = 2026-03-28T03:02:08.246976
MEAN_MOTION    = 15.53874924
ECCENTRICITY   = .00118591
INCLINATION    = 51.6320
RA_OF_ASC_NODE = 340.0239
ARG_OF_PERICENTER = 249.3772
MEAN_ANOMALY   = 110.5947

EPHEMERIS_TYPE = 0
CLASSIFICATION_TYPE = U
NORAD_CAT_ID   = 67685
ELEMENT_SET_NO = 999
REV_AT_EPOCH   = 765
BSTAR          = .71758857E-3
MEAN_MOTION_DOT = .46994E-3
MEAN_MOTION_DDOT = 0

CCSDS_OMM_VERS = 2.0
CREATION_DATE  = 
ORIGINATOR     = 

OBJECT_NAME    = UITMSAT-2
OBJECT_ID      = 1998-067YC
CENTER_NAME    = EARTH
REF_FRAME      = TEME
TIME_SYSTEM    = UTC
MEAN_ELEMENT_THEORY = SGP/SGP4

EPOCH          = 2026-03-28T02:41:42.799488
MEAN_MOTION    = 15.54802779
ECCENTRICITY   = .00090505
INCLINATION    = 51.6320
RA_OF_ASC_NODE = 339.9313
ARG_OF_PERICENTER = 220.6186
MEAN_ANOMALY   = 139.4131

EPHEMERIS_TYPE = 0
CLASSIFICATION_TYPE = U
NORAD_CAT_ID   = 67686
ELEMENT_SET_NO = 999
REV_AT_EPOCH   = 765
BSTAR          = .8622031E-3
MEAN_MOTION_DOT = .58539E-3
MEAN_MOTION_DDOT = 0

CCSDS_OMM_VERS = 2.0
CREATION_DATE  = 
ORIGINATOR     = 

OBJECT_NAME    = HMU-SAT2
OBJECT_ID      = 1998-067YD
CENTER_NAME    = EARTH
REF_FRAME      = TEME
TIME_SYSTEM    = UTC
MEAN_ELEMENT_THEORY = SGP/SGP4

EPOCH          = 2026-03-28T03:09:04.060800
MEAN_MOTION    = 15.53622616
ECCENTRICITY   = .00085467
INCLINATION    = 51.6326
RA_OF_ASC_NODE = 340.0583
ARG_OF_PERICENTER = 223.8304
MEAN_ANOMALY   = 136.2009

EPHEMERIS_TYPE = 0
CLASSIFICATION_TYPE = U
NORAD_CAT_ID   = 67687
ELEMENT_SET_NO = 999
REV_AT_EPOCH   = 757
BSTAR          = .70312211E-3
MEAN_MOTION_DOT = .45541E-3
MEAN_MOTION_DDOT = 0

CCSDS_OMM_VERS = 2.0
CREATION_DATE  = 
ORIGINATOR     = 

OBJECT_NAME    = LEOPARD
OBJECT_ID      = 1998-067YE
CENTER_NAME    = EARTH
REF_FRAME      = TEME
TIME_SYSTEM    = UTC
MEAN_ELEMENT_THEORY = SGP/SGP4

EPOCH          = 2026-03-27T23:45:52.132608
MEAN_MOTION    = 15.54365889
ECCENTRICITY   = .0008714
INCLINATION    = 51.6330
RA_OF_ASC_NODE = 340.6163
ARG_OF_PERICENTER = 220.8121
MEAN_ANOMALY   = 139.2218

EPHEMERIS_TYPE = 0
CLASSIFICATION_TYPE = U
NORAD_CAT_ID   = 67688
ELEMENT_SET_NO = 999
REV_AT_EPOCH   = 755
BSTAR          = .79128E-3
MEAN_MOTION_DOT = .52781E-3
MEAN_MOTION_DDOT = 0

CCSDS_OMM_VERS = 2.0
CREATION_DATE  = 
ORIGINATOR     = 

OBJECT_NAME    = CREW DRAGON 12
OBJECT_ID      = 2026-031A
CENTER_NAME    = EARTH
REF_FRAME      = TEME
TIME_SYSTEM    = UTC
MEAN_ELEMENT_THEORY = SGP/SGP4

EPOCH          = 2026-03-28T11:41:48.111360
MEAN_MOTION    = 15.48607800
ECCENTRICITY   = .0006231
INCLINATION    = 51.6344
RA_OF_ASC_NODE = 339.4313
ARG_OF_PERICENTER = 242.6596
MEAN_ANOMALY   = 117.3758

EPHEMERIS_TYPE = 0
CLASSIFICATION_TYPE = U
NORAD_CAT_ID   = 67796
ELEMENT_SET_NO = 999
REV_AT_EPOCH   = 55920
BSTAR          = .22419E-3
MEAN_MOTION_DOT = .11758E-3
MEAN_MOTION_DDOT = 0

CCSDS_OMM_VERS = 2.0
CREATION_DATE  = 
ORIGINATOR     = 

OBJECT_NAME    = PROGRESS-MS 33
OBJECT_ID      = 2026-058A
CENTER_NAME    = EARTH
REF_FRAME      = TEME
TIME_SYSTEM    = UTC
MEAN_ELEMENT_THEORY = SGP/SGP4

EPOCH          = 2026-03-28T11:41:48.111360
MEAN_MOTION    = 15.48607800
ECCENTRICITY   = .0006231
INCLINATION    = 51.6344
RA_OF_ASC_NODE = 339.4313
ARG_OF_PERICENTER = 242.6596
MEAN_ANOMALY   = 117.3758

EPHEMERIS_TYPE = 0
CLASSIFICATION_TYPE = U
NORAD_CAT_ID   = 68319
ELEMENT_SET_NO = 999
REV_AT_EPOCH   = 71
BSTAR          = .22419E-3
MEAN_MOTION_DOT = .11758E-3
MEAN_MOTION_DDOT = 0

