CORAL                   
1 67684U 98067YA  26087.39107318  .00096574  00000+0  12759-2 0  9992
2 67684  51.6305 338.0415 0012673 243.0284 116.9414 15.57476996  7708
GXIBA-1                 
1 67685U 98067YB  26087.12648434  .00046994  00000+0  71759-3 0  9990
2 67685  51.6320 340.0239 0011859 249.3772 110.5947 15.53874924  7653
UITMSAT-2               
1 67686U 98067YC  26087.11230092  .00058539  00000+0  86220-3 0  9994
2 67686  51.6320 339.9313 0009050 220.6186 139.4131 15.54802779  7650
HMU-SAT2                
1 67687U 98067YD  26087.13129700  .00045541  00000+0  70312-3 0  9994
2 67687  51.6326 340.0583 0008546 223.8304 136.2009 15.53622616  7574
LEOPARD                 
1 67688U 98067YE  26086.99018672  .00052781  00000+0  79128-3 0  9991
2 67688  51.6330 340.6163 0008714 220.8121 139.2218 15.54365889  7551
CREW DRAGON 12          
1 67796U 26031A   26087.48736240  .00011758  00000+0  22419-3 0  9996
2 67796  51.6344 339.4313 0006231 242.6596 117.3758 15.48607800559204
PROGRESS-MS 33          
1 68319U 26058A   26087.48736240  .00011758  00000+0  22419-3 0  9997
2 68319  51.6344 339.4313 0006231 242.6596 117.3758 15.48607800   713
